[{"OBJECT_NAME":"STARLINK-31136","OBJECT_ID":"2024-011H","EPOCH":"2026-03-09T06:06:22.536864","MEAN_MOTION":15.30191438,"ECCENTRICITY":8.738e-5,"INCLINATION":53.1616,"RA_OF_ASC_NODE":15.6954,"ARG_OF_PERICENTER":109.0799,"MEAN_ANOMALY":251.0296,"EPHEMERIS_TYPE":0,"CLASSIFICATION_TYPE":"U","NORAD_CAT_ID":58772,"ELEMENT_SET_NO":999,"REV_AT_EPOCH":12019,"BSTAR":5.949142e-6,"MEAN_MOTION_DOT":-1.83e-6,"MEAN_MOTION_DDOT":0},{"OBJECT_NAME":"KUIPER-00274","OBJECT_ID":"2026-030AE","EPOCH":"2026-03-09T22:00:01.999584","MEAN_MOTION":15.29896925,"ECCENTRICITY":0.00182929,"INCLINATION":51.8831,"RA_OF_ASC_NODE":218.6923,"ARG_OF_PERICENTER":71.2033,"MEAN_ANOMALY":115.2248,"EPHEMERIS_TYPE":0,"CLASSIFICATION_TYPE":"U","NORAD_CAT_ID":67792,"ELEMENT_SET_NO":999,"REV_AT_EPOCH":410,"BSTAR":0.0017989756,"MEAN_MOTION_DOT":0.00053102,"MEAN_MOTION_DDOT":0}]
